MEAN_MOTION;ECCENTRICITY;INCLINATION;RA_OF_ASC_NODE;ARG_OF_PERICENTER;MEAN_ANOMALY;BSTAR;MEAN_MOTION_DOT;MEAN_MOTION_DDOT;TYPE
0.97293422;0.0011054;15.8252;358.48;158.4999;35.3414;0;-1.82E-6;0;Intelsat
0.972934;0.0011089;15.8248;358.4687;158.2756;90.9651;0;-1.9E-6;0;Intelsat
0.97293274;0.0011118;15.8244;358.4604;158.0631;37.2651;0;-1.87E-6;0;Intelsat
0.97292943;0.0011143;15.824;358.4513;157.8646;12.7279;0;-1.77E-6;0;Intelsat
0.97292534;0.0011168;15.8236;358.4417;157.6284;7.2604;0;-1.59E-6;0;Intelsat
0.97292489;0.0011171;15.8236;358.4409;157.5944;36.0837;0;-1.57E-6;0;Intelsat
0.97291596;0.0011202;15.8228;358.4221;157.1681;12.3276;0;-1.12E-6;0;Intelsat
0.97291184;0.0011207;15.8224;358.4132;157.0084;344.3567;0;-9.3E-7;0;Intelsat
0.97290984;0.0011225;15.822;358.4026;156.6993;17.728;0;-7.8E-7;0;Intelsat
0.97291049;0.0011238;15.8215;358.3915;156.4224;72.4519;0;-7.4E-7;0;Intelsat
0.97291061;0.0011246;15.8214;358.3896;156.3161;144.224;0;-7.4E-7;0;Intelsat
0.97291507;0.0011275;15.8207;358.3736;155.7582;20.2756;0;-9.1E-7;0;Intelsat
0.97291715;0.0011287;15.8205;358.3686;155.5594;205.6418;0;-9.9E-7;0;Intelsat
0.97291903;0.0011299;15.8203;358.3647;155.3825;351.75;0;-1.07E-6;0;Intelsat
0.97292349;0.0011323;15.8198;358.3542;155.0167;22.7678;0;-1.29E-6;0;Intelsat
0.97292701;0.0011354;15.8194;358.3446;154.6418;20.2616;0;-1.47E-6;0;Intelsat
0.97293112;0.0011432;15.8185;358.3251;153.9227;28.6269;0;-1.67E-6;0;Intelsat
0.97293184;0.0011452;15.8181;358.3181;153.7331;292.4001;0;-1.68E-6;0;Intelsat
0.97293117;0.0011456;15.818;358.3157;153.6803;22.6273;0;-1.67E-6;0;Intelsat
0.97292916;0.0011506;15.8176;358.3061;153.3611;22.21;0;-1.6E-6;0;Intelsat
0.97292662;0.0011563;15.8171;358.2963;153.0326;28.4325;0;-1.46E-6;0;Intelsat
0.97292462;0.0011603;15.8168;358.2884;152.8309;325.6256;0;-1.33E-6;0;Intelsat
0.9729239;0.0011607;15.8167;358.287;152.8133;19.9583;0;-1.31E-6;0;Intelsat
0.97292324;0.0011606;15.8166;358.286;152.7992;59.7386;0;-1.28E-6;0;Intelsat
0.97291703;0.001172;15.8158;358.2677;152.3474;28.0437;0;-9.6E-7;0;Intelsat
0.97291454;0.0011776;15.8154;358.2583;152.1559;19.5232;0;-8.2E-7;0;Intelsat
0.97291274;0.0011844;15.8149;358.2482;151.9499;36.0431;0;-7.3E-7;0;Intelsat
0.97291359;0.0011973;15.814;358.2293;151.6764;18.906;0;-7.4E-7;0;Intelsat
0.97291558;0.0012101;15.8134;358.2173;151.3123;104.5982;0;-8.8E-7;0;Intelsat
0.97291837;0.0012153;15.8131;358.2095;151.2183;34.4847;0;-1.02E-6;0;Intelsat
0.97292279;0.0012189;15.8127;358.2002;151.2074;21.7706;0;-1.23E-6;0;Intelsat
0.97292692;0.0012223;15.8122;358.1902;151.1635;34.6521;0;-1.47E-6;0;Intelsat
0.97293026;0.0012257;15.8118;358.1805;151.1018;37.0185;0;-1.7E-6;0;Intelsat
0.97293316;0.0012281;15.8113;358.1714;151.0732;17.3582;0;-1.86E-6;0;Intelsat
0.97293361;0.0012297;15.8109;358.1612;151.0366;40.3492;0;-1.97E-6;0;Intelsat
0.97293298;0.0012333;15.8104;358.1513;150.9199;49.6297;0;-1.98E-6;0;Intelsat
0.97293088;0.0012358;15.8099;358.142;150.8272;41.5599;0;-1.89E-6;0;Intelsat
0.97292796;0.0012379;15.8095;358.1326;150.7144;32.5294;0;-1.71E-6;0;Intelsat
0.97292284;0.0012387;15.809;358.1232;150.6105;25.5712;0;-1.48E-6;0;Intelsat
0.97292249;0.0012389;15.809;358.1228;150.608;41.3839;0;-1.47E-6;0;Intelsat
0.97291705;0.0012423;15.8086;358.1135;150.4544;28.902;0;-1.21E-6;0;Intelsat
0.97291705;0.0012423;15.8086;358.1135;150.4544;28.902;0;-1.21E-6;0;Intelsat
0.97291328;0.0012465;15.808;358.1039;150.2264;32.3716;0;-9.6E-7;0;Intelsat
0.97291033;0.0012493;15.8075;358.0946;149.9687;23.9106;0;-7.7E-7;0;Intelsat
0.97290892;0.0012585;15.8071;358.0846;149.6125;40.5961;0;-6.5E-7;0;Intelsat
0.9729096;0.0012639;15.8066;358.0753;149.4475;32.0652;0;-6.4E-7;0;Intelsat
0.97291611;0.0012689;15.8056;358.056;149.1672;39.895;0;-8.8E-7;0;Intelsat
0.97291997;0.0012738;15.8051;358.0466;149.0446;31.3088;0;-1.07E-6;0;Intelsat
0.97292175;0.001278;15.8049;358.042;148.9124;207.0698;0;-1.17E-6;0;Intelsat
0.97292438;0.0012829;15.8047;358.0374;148.8558;22.7963;0;-1.27E-6;0;Intelsat
0.97292821;0.0012902;15.8042;358.0275;148.7488;32.1256;0;-1.45E-6;0;Intelsat
0.97293009;0.0013041;15.8035;358.0133;148.5674;206.3413;0;-1.62E-6;0;Intelsat
0.97293136;0.0013102;15.8033;358.0087;148.5358;22.0348;0;-1.64E-6;0;Intelsat
0.97293127;0.0013133;15.8031;358.0049;148.4925;161.9627;0;-1.64E-6;0;Intelsat
0.97293042;0.0013182;15.8028;357.9986;148.4944;38.4109;0;-1.63E-6;0;Intelsat
0.97292856;0.0013263;15.8023;357.9888;148.4778;46.3212;0;-1.56E-6;0;Intelsat
0.972926;0.0013336;15.8018;357.9799;148.488;21.0089;0;-1.45E-6;0;Intelsat
0.97292203;0.0013371;15.8013;357.9698;148.5166;37.3084;0;-1.3E-6;0;Intelsat
0.97291708;0.0013425;15.8006;357.9556;148.6236;204.1159;0;-1.09E-6;0;Intelsat
0.97291331;0.0013508;15.7999;357.9408;148.7039;36.0222;0;-9.2E-7;0;Intelsat
0.9729122;0.0013531;15.7998;357.9378;148.7181;149.8867;0;-8.9E-7;0;Intelsat
0.97291203;0.0013557;15.7994;357.9303;148.7402;69.9226;0;-8.5E-7;0;Intelsat
0.97291183;0.0013561;15.7989;357.9208;148.7937;68.8737;0;-8.5E-7;0;Intelsat
0.97291498;0.0013591;15.7982;357.9075;148.8735;210.393;0;-9.4E-7;0;Intelsat
0.97291751;0.0013604;15.7977;357.8981;148.8996;201.651;0;-1.07E-6;0;Intelsat
0.97292142;0.0013611;15.7972;357.8882;148.8984;217.9623;0;-1.26E-6;0;Intelsat
0.97292424;0.0013627;15.7967;357.8788;148.9085;209.2457;0;-1.45E-6;0;Intelsat
0.97292706;0.001365;15.7964;357.8738;148.8787;37.5687;0;-1.55E-6;0;Intelsat
0.97292853;0.0013662;15.7962;357.8695;148.8892;200.5882;0;-1.64E-6;0;Intelsat
0.97293101;0.0013676;15.7956;357.8595;148.8172;216.895;0;-1.8E-6;0;Intelsat
0.97293101;0.0013676;15.7956;357.8595;148.8172;216.895;0;-1.8E-6;0;Intelsat
0.97293196;0.0013701;15.7954;357.8545;148.7823;45.5753;0;-1.86E-6;0;Intelsat
0.97293244;0.0013715;15.7951;357.8502;148.788;208.2996;0;-1.89E-6;0;Intelsat
0.97293234;0.0013762;15.7946;357.8405;148.7317;214.5392;0;-1.9E-6;0;Intelsat
0.97293234;0.0013762;15.7946;357.8405;148.7317;214.5392;0;-1.89E-6;0;Intelsat
0.97293097;0.0013774;15.7943;357.8349;148.6758;65.3206;0;-1.86E-6;0;Intelsat
0.97292852;0.0013781;15.7938;357.8261;148.5802;36.1285;0;-1.73E-6;0;Intelsat
0.9729273;0.0013779;15.7936;357.8216;148.5363;207.4788;0;-1.64E-6;0;Intelsat
0.97292463;0.0013808;15.7933;357.8164;148.5184;43.7267;0;-1.52E-6;0;Intelsat
0.97291988;0.001385;15.7928;357.8069;148.4818;39.5178;0;-1.27E-6;0;Intelsat
0.97291519;0.0013902;15.7923;357.7976;148.4579;30.8234;0;-1.01E-6;0;Intelsat
0.97291303;0.0013915;15.7921;357.794;148.421;165.6628;0;-9.2E-7;0;Intelsat
0.97290936;0.0013981;15.7913;357.7785;148.3701;28.3781;0;-6.2E-7;0;Intelsat
0.9729084;0.0014012;15.791;357.7736;148.3163;214.3973;0;-5.8E-7;0;Intelsat
0.97291036;0.001409;15.7902;357.7596;148.3621;21.074;0;-5.9E-7;0;Intelsat
0.97291178;0.0014117;15.7899;357.7543;148.3395;221.752;0;-6.5E-7;0;Intelsat
0.97291776;0.0014187;15.7891;357.7402;148.4236;28.5975;0;-9.2E-7;0;Intelsat
0.9729222;0.0014239;15.7886;357.7303;148.493;36.5371;0;-1.15E-6;0;Intelsat
0.97292602;0.0014288;15.7881;357.7207;148.5804;34.8054;0;-1.38E-6;0;Intelsat
0.97292963;0.0014339;15.7876;357.7112;148.7034;27.2309;0;-1.57E-6;0;Intelsat
0.97293044;0.0014368;15.7873;357.7065;148.7715;202.7891;0;-1.65E-6;0;Intelsat
0.97293132;0.0014391;15.787;357.701;148.8409;43.4116;0;-1.71E-6;0;Intelsat
0.97293172;0.0014429;15.7865;357.6917;148.9772;28.5433;0;-1.77E-6;0;Intelsat
0.972931;0.0014447;15.7863;357.6868;149.056;210.1488;0;-1.77E-6;0;Intelsat
0.97293029;0.0014462;15.786;357.6821;149.118;25.7393;0;-1.75E-6;0;Intelsat
0.97292891;0.001448;15.7858;357.6774;149.1965;201.2971;0;-1.72E-6;0;Intelsat
0.97292573;0.0014499;15.7853;357.6673;149.3281;217.4793;0;-1.61E-6;0;Intelsat
0.97292234;0.0014514;15.7848;357.6579;149.4341;208.672;0;-1.46E-6;0;Intelsat
0.97291884;0.0014516;15.7843;357.6477;149.5185;228.9226;0;-1.27E-6;0;Intelsat
0.97291597;0.0014525;15.7839;357.6406;149.5833;137.8772;0;-1.15E-6;0;Intelsat
0.97291321;0.0014527;15.7832;357.6292;149.6521;207.3407;0;-9.7E-7;0;Intelsat
0.97291216;0.0014535;15.7829;357.624;149.6719;40.018;0;-9.1E-7;0;Intelsat
0.97291154;0.001453;15.7827;357.6191;149.69;224.3377;0;-8.6E-7;0;Intelsat
0.97291132;0.0014536;15.7821;357.6101;149.7243;200.365;0;-8.2E-7;0;Intelsat
0.97291173;0.0014549;15.7819;357.6051;149.7228;28.1709;0;-8.1E-7;0;Intelsat
0.97291442;0.0014571;15.781;357.5903;149.7616;222.409;0;-9.1E-7;0;Intelsat
0.97291632;0.0014598;15.7807;357.5856;149.7778;38.107;0;-9.7E-7;0;Intelsat
0.97291787;0.0014597;15.7805;357.5812;149.7812;204.267;0;-1.04E-6;0;Intelsat
0.97292151;0.0014628;15.7799;357.5715;149.8002;205.0119;0;-1.22E-6;0;Intelsat
0.97292397;0.0014651;15.7795;357.5652;149.8092;79.61;0;-1.34E-6;0;Intelsat
0.97292534;0.0014651;15.7794;357.5622;149.798;189.1531;0;-1.4E-6;0;Intelsat
0.97292946;0.0014672;15.7788;357.552;149.7569;212.6674;0;-1.6E-6;0;Intelsat
0.97293095;0.0014693;15.7784;357.5454;149.769;98.7599;0;-1.7E-6;0;Intelsat
0.97293243;0.0014725;15.778;357.5374;149.7929;37.2862;0;-1.78E-6;0;Intelsat
0.97293251;0.0014764;15.7774;357.5278;149.8242;35.8679;0;-1.8E-6;0;Intelsat
0.97293093;0.0014806;15.7769;357.5185;149.871;27.1073;0;-1.74E-6;0;Intelsat
0.97292952;0.0014827;15.7766;357.5138;149.8614;202.7269;0;-1.68E-6;0;Intelsat
0.97292533;0.0014879;15.7761;357.5037;149.9425;218.9652;0;-1.49E-6;0;Intelsat
0.97292328;0.00149;15.7758;357.499;150.0154;34.5541;0;-1.38E-6;0;Intelsat
0.97292117;0.0014926;15.7755;357.4942;150.0341;210.1801;0;-1.26E-6;0;Intelsat
0.97291632;0.0014969;15.775;357.4847;150.1423;201.3702;0;-1.03E-6;0;Intelsat
0.97291382;0.0014988;15.7747;357.4793;150.2219;41.9513;0;-9.0E-7;0;Intelsat
0.9729111;0.0015028;15.7742;357.4698;150.3427;33.1463;0;-7.3E-7;0;Intelsat
0.9729095;0.001507;15.7737;357.4603;150.493;24.2609;0;-6.4E-7;0;Intelsat
0.9729105;0.0015128;15.7731;357.4478;150.728;129.5254;0;-6.6E-7;0;Intelsat
0.97291201;0.001516;15.7726;357.4395;150.9035;73.5351;0;-7.6E-7;0;Intelsat
0.97291354;0.0015173;15.7724;357.4359;150.992;206.9926;0;-8.2E-7;0;Intelsat
0.97291948;0.0015204;15.7717;357.4209;151.2698;38.7078;0;-1.15E-6;0;Intelsat
0.97292173;0.0015214;15.7714;357.4162;151.3763;214.2227;0;-1.27E-6;0;Intelsat
